{"type": "FeatureCollection", "features": [{"type": "Feature", "properties": {"norad_id": 36828, "name": "BEIDOU-2 IGSO-1 (C06)", "group": "beidou", "lat": 44.949824340843136, "lon": -61.269248497428265, "alt_km": 35802.56347790871, "timestamp": "2025-12-03T06:58:43.502403+00:00", "meta": {"OBJECT_NAME": "BEIDOU-2 IGSO-1 (C06)", "OBJECT_ID": "2010-036A", "EPOCH": "2025-12-01T10:54:26.819712", "MEAN_MOTION": 1.00279202, "ECCENTRICITY": 0.00512823, "INCLINATION": 54.2832, "RA_OF_ASC_NODE": 164.751, "ARG_OF_PERICENTER": 215.7518, "MEAN_ANOMALY": 321.3962, "EPHEMERIS_TYPE": 0, "CLASSIFICATION_TYPE": "U", "NORAD_CAT_ID": 36828, "ELEMENT_SET_NO": 999, "REV_AT_EPOCH": 5611, "BSTAR": 0, "MEAN_MOTION_DOT": -1.7e-07, "MEAN_MOTION_DDOT": 0}, "tle": {"line1": "1 36828U 10036A   25335.45447708 -.00000017  00000+0  00000+0 0  9991", "line2": "2 36828  54.2832 164.7510 0051282 215.7518 321.3962  1.00279202 56116"}}, "geometry": {"type": "Point", "coordinates": [-61.269248497428265, 44.949824340843136]}}, {"type": "Feature", "properties": {"norad_id": 37210, "name": "BEIDOU-2 G4 (C04)", "group": "beidou", "lat": -3.1491117126577697, "lon": -22.767319721385736, "alt_km": 35777.991622065856, "timestamp": "2025-12-03T06:58:43.502431+00:00", "meta": {"OBJECT_NAME": "BEIDOU-2 G4 (C04)", "OBJECT_ID": "2010-057A", "EPOCH": "2025-12-02T16:16:59.711232", "MEAN_MOTION": 1.00271364, "ECCENTRICITY": 0.00108679, "INCLINATION": 3.1576, "RA_OF_ASC_NODE": 69.9621, "ARG_OF_PERICENTER": 188.1041, "MEAN_ANOMALY": 218.0329, "EPHEMERIS_TYPE": 0, "CLASSIFICATION_TYPE": "U", "NORAD_CAT_ID": 37210, "ELEMENT_SET_NO": 999, "REV_AT_EPOCH": 5532, "BSTAR": 0, "MEAN_MOTION_DOT": -9.2e-07, "MEAN_MOTION_DDOT": 0}, "tle": {"line1": "1 37210U 10057A   25336.67846888 -.00000092  00000+0  00000+0 0  9990", "line2": "2 37210   3.1576  69.9621 0010867 188.1041 218.0329  1.00271364 55329"}}, "geometry": {"type": "Point", "coordinates": [-22.767319721385736, -3.1491117126577697]}}, {"type": "Feature", "properties": {"norad_id": 37256, "name": "BEIDOU-2 IGSO-2 (C07)", "group": "beidou", "lat": 7.575090830119762, "lon": -78.88602608814882, "alt_km": 35967.005273408584, "timestamp": "2025-12-03T06:58:43.502447+00:00", "meta": {"OBJECT_NAME": "BEIDOU-2 IGSO-2 (C07)", "OBJECT_ID": "2010-068A", "EPOCH": "2025-12-02T18:27:21.890304", "MEAN_MOTION": 1.00289078, "ECCENTRICITY": 0.0049278, "INCLINATION": 47.9063, "RA_OF_ASC_NODE": 274.2734, "ARG_OF_PERICENTER": 216.1997, "MEAN_ANOMALY": 325.3694, "EPHEMERIS_TYPE": 0, "CLASSIFICATION_TYPE": "U", "NORAD_CAT_ID": 37256, "ELEMENT_SET_NO": 999, "REV_AT_EPOCH": 5482, "BSTAR": 0, "MEAN_MOTION_DOT": -2.27e-06, "MEAN_MOTION_DDOT": 0}, "tle": {"line1": "1 37256U 10068A   25336.76900336 -.00000227  00000+0  00000+0 0  9991", "line2": "2 37256  47.9063 274.2734 0049278 216.1997 325.3694  1.00289078 54824"}}, "geometry": {"type": "Point", "coordinates": [-78.88602608814882, 7.575090830119762]}}, {"type": "Feature", "properties": {"norad_id": 37384, "name": "BEIDOU-2 IGSO-3 (C08)", "group": "beidou", "lat": -52.03476457173484, "lon": -95.37498052421267, "alt_km": 35709.38035045714, "timestamp": "2025-12-03T06:58:43.502465+00:00", "meta": {"OBJECT_NAME": "BEIDOU-2 IGSO-3 (C08)", "OBJECT_ID": "2011-013A", "EPOCH": "2025-11-29T21:04:05.094336", "MEAN_MOTION": 1.00273417, "ECCENTRICITY": 0.00356655, "INCLINATION": 62.1255, "RA_OF_ASC_NODE": 42.0418, "ARG_OF_PERICENTER": 186.0158, "MEAN_ANOMALY": 264.7363, "EPHEMERIS_TYPE": 0, "CLASSIFICATION_TYPE": "U", "NORAD_CAT_ID": 37384, "ELEMENT_SET_NO": 999, "REV_AT_EPOCH": 5366, "BSTAR": 0, "MEAN_MOTION_DOT": -1.94e-06, "MEAN_MOTION_DDOT": 0}, "tle": {"line1": "1 37384U 11013A   25333.87783674 -.00000194  00000+0  00000+0 0  9990", "line2": "2 37384  62.1255  42.0418 0035665 186.0158 264.7363  1.00273417 53667"}}, "geometry": {"type": "Point", "coordinates": [-95.37498052421267, -52.03476457173484]}}, {"type": "Feature", "properties": {"norad_id": 37763, "name": "BEIDOU-2 IGSO-4 (C09)", "group": "beidou", "lat": 52.71976953219512, "lon": -81.99660847622489, "alt_km": 36158.4400844107, "timestamp": "2025-12-03T06:58:43.502480+00:00", "meta": {"OBJECT_NAME": "BEIDOU-2 IGSO-4 (C09)", "OBJECT_ID": "2011-038A", "EPOCH": "2025-12-01T12:32:09.960864", "MEAN_MOTION": 1.00284074, "ECCENTRICITY": 0.0148781, "INCLINATION": 54.5808, "RA_OF_ASC_NODE": 167.4476, "ARG_OF_PERICENTER": 230.2031, "MEAN_ANOMALY": 315.0387, "EPHEMERIS_TYPE": 0, "CLASSIFICATION_TYPE": "U", "NORAD_CAT_ID": 37763, "ELEMENT_SET_NO": 999, "REV_AT_EPOCH": 5266, "BSTAR": 0, "MEAN_MOTION_DOT": 1.01e-06, "MEAN_MOTION_DDOT": 0}, "tle": {"line1": "1 37763U 11038A   25335.52233751  .00000101  00000+0  00000+0 0  9995", "line2": "2 37763  54.5808 167.4476 0148781 230.2031 315.0387  1.00284074 52665"}}, "geometry": {"type": "Point", "coordinates": [-81.99660847622489, 52.71976953219512]}}, {"type": "Feature", "properties": {"norad_id": 37948, "name": "BEIDOU-2 IGSO-5 (C10)", "group": "beidou", "lat": -2.6743439251395524, "lon": -88.47222973096875, "alt_km": 36103.25862916153, "timestamp": "2025-12-03T06:58:43.502493+00:00", "meta": {"OBJECT_NAME": "BEIDOU-2 IGSO-5 (C10)", "OBJECT_ID": "2011-073A", "EPOCH": "2025-12-02T19:23:39.606720", "MEAN_MOTION": 1.00292511, "ECCENTRICITY": 0.0110705, "INCLINATION": 48.0402, "RA_OF_ASC_NODE": 273.9813, "ARG_OF_PERICENTER": 222.1881, "MEAN_ANOMALY": 319.0044, "EPHEMERIS_TYPE": 0, "CLASSIFICATION_TYPE": "U", "NORAD_CAT_ID": 37948, "ELEMENT_SET_NO": 999, "REV_AT_EPOCH": 5116, "BSTAR": 0, "MEAN_MOTION_DOT": -1.77e-06, "MEAN_MOTION_DDOT": 0}, "tle": {"line1": "1 37948U 11073A   25336.80809730 -.00000177  00000+0  00000+0 0  9991", "line2": "2 37948  48.0402 273.9813 0110705 222.1881 319.0044  1.00292511 51167"}}, "geometry": {"type": "Point", "coordinates": [-88.47222973096875, -2.6743439251395524]}}, {"type": "Feature", "properties": {"norad_id": 38091, "name": "BEIDOU-2 G5 (C05)", "group": "beidou", "lat": 0.7780168000184784, "lon": -124.35670158273486, "alt_km": 35760.124611400155, "timestamp": "2025-12-03T06:58:43.502506+00:00", "meta": {"OBJECT_NAME": "BEIDOU-2 G5 (C05)", "OBJECT_ID": "2012-008A", "EPOCH": "2025-12-02T20:49:38.785728", "MEAN_MOTION": 1.0027214, "ECCENTRICITY": 0.0012275, "INCLINATION": 3.0826, "RA_OF_ASC_NODE": 70.7364, "ARG_OF_PERICENTER": 225.3928, "MEAN_ANOMALY": 146.9487, "EPHEMERIS_TYPE": 0, "CLASSIFICATION_TYPE": "U", "NORAD_CAT_ID": 38091, "ELEMENT_SET_NO": 999, "REV_AT_EPOCH": 5040, "BSTAR": 0, "MEAN_MOTION_DOT": 7.6e-07, "MEAN_MOTION_DDOT": 0}, "tle": {"line1": "1 38091U 12008A   25336.86781002  .00000076  00000+0  00000+0 0  9994", "line2": "2 38091   3.0826  70.7364 0012275 225.3928 146.9487  1.00272140 50402"}}, "geometry": {"type": "Point", "coordinates": [-124.35670158273486, 0.7780168000184784]}}, {"type": "Feature", "properties": {"norad_id": 38250, "name": "BEIDOU-2 M3 (C11)", "group": "beidou", "lat": 46.6890882499534, "lon": -2.67609403961561, "alt_km": 21580.77876143037, "timestamp": "2025-12-03T06:58:43.502522+00:00", "meta": {"OBJECT_NAME": "BEIDOU-2 M3 (C11)", "OBJECT_ID": "2012-018A", "EPOCH": "2025-12-01T01:13:35.126400", "MEAN_MOTION": 1.86229725, "ECCENTRICITY": 0.00245382, "INCLINATION": 55.9302, "RA_OF_ASC_NODE": 311.5507, "ARG_OF_PERICENTER": 273.3676, "MEAN_ANOMALY": 86.348, "EPHEMERIS_TYPE": 0, "CLASSIFICATION_TYPE": "U", "NORAD_CAT_ID": 38250, "ELEMENT_SET_NO": 999, "REV_AT_EPOCH": 9225, "BSTAR": 0, "MEAN_MOTION_DOT": -5.3e-07, "MEAN_MOTION_DDOT": 0}, "tle": {"line1": "1 38250U 12018A   25335.05110100 -.00000053  00000+0  00000+0 0  9993", "line2": "2 38250  55.9302 311.5507 0024538 273.3676  86.3480  1.86229725 92251"}}, "geometry": {"type": "Point", "coordinates": [-2.67609403961561, 46.6890882499534]}}, {"type": "Feature", "properties": {"norad_id": 38251, "name": "BEIDOU-2 M4 (C12)", "group": "beidou", "lat": 52.302718627061225, "lon": 69.19617285995113, "alt_km": 21565.171122467313, "timestamp": "2025-12-03T06:58:43.502546+00:00", "meta": {"OBJECT_NAME": "BEIDOU-2 M4 (C12)", "OBJECT_ID": "2012-018B", "EPOCH": "2025-11-30T23:35:43.237248", "MEAN_MOTION": 1.86229405, "ECCENTRICITY": 0.00156645, "INCLINATION": 55.8317, "RA_OF_ASC_NODE": 310.7829, "ARG_OF_PERICENTER": 276.4205, "MEAN_ANOMALY": 83.3972, "EPHEMERIS_TYPE": 0, "CLASSIFICATION_TYPE": "U", "NORAD_CAT_ID": 38251, "ELEMENT_SET_NO": 999, "REV_AT_EPOCH": 9225, "BSTAR": 0, "MEAN_MOTION_DOT": -5.3e-07, "MEAN_MOTION_DDOT": 0}, "tle": {"line1": "1 38251U 12018B   25334.98313932 -.00000053  00000+0  00000+0 0  9993", "line2": "2 38251  55.8317 310.7829 0015664 276.4205  83.3972  1.86229405 92255"}}, "geometry": {"type": "Point", "coordinates": [69.19617285995113, 52.302718627061225]}}, {"type": "Feature", "properties": {"norad_id": 38775, "name": "BEIDOU-2 M6 (C14)", "group": "beidou", "lat": -45.655701960232804, "lon": 26.541119282013387, "alt_km": 21512.119879667807, "timestamp": "2025-12-03T06:58:43.502580+00:00", "meta": {"OBJECT_NAME": "BEIDOU-2 M6 (C14)", "OBJECT_ID": "2012-050B", "EPOCH": "2025-12-01T18:25:55.892928", "MEAN_MOTION": 1.86230731, "ECCENTRICITY": 0.0010865, "INCLINATION": 56.3691, "RA_OF_ASC_NODE": 69.4317, "ARG_OF_PERICENTER": 346.4712, "MEAN_ANOMALY": 13.5024, "EPHEMERIS_TYPE": 0, "CLASSIFICATION_TYPE": "U", "NORAD_CAT_ID": 38775, "ELEMENT_SET_NO": 999, "REV_AT_EPOCH": 8963, "BSTAR": 0, "MEAN_MOTION_DOT": -4.3e-07, "MEAN_MOTION_DDOT": 0}, "tle": {"line1": "1 38775U 12050B   25335.76800802 -.00000043  00000+0  00000+0 0  9993", "line2": "2 38775  56.3691  69.4317 0010865 346.4712  13.5024  1.86230731 89631"}}, "geometry": {"type": "Point", "coordinates": [26.541119282013387, -45.655701960232804]}}]}